TDRS 3                  
1 19548U 88091B   26169.25593528 -.00000309  00000+0  00000+0 0  9997
2 19548  12.6008 340.9981 0038392 356.2065 332.6124  1.00272835125391
FLTSATCOM 8 (USA 46)    
1 20253U 89077A   26168.92166843 -.00000377  00000+0  00000+0 0  9991
2 20253  12.4214 351.1599 0004355  56.1729 316.3415  1.00277113260573
SKYNET 4C               
1 20776U 90079A   26162.20198485  .00000132  00000+0  00000+0 0  9995
2 20776  13.3424 349.8525 0002400  96.2313 279.5534  1.00274127130831
TDRS 5                  
1 21639U 91054B   26169.23111358  .00000073  00000+0  00000+0 0  9996
2 21639  14.0710 353.7738 0006351 275.3826 272.8417  1.00274771127729
TDRS 6                  
1 22314U 93003B   26168.35461314 -.00000306  00000+0  00000+0 0  9995
2 22314  14.1828 357.0581 0008028 178.0729 172.3329  1.00271326122407
UFO 2 (USA 95)          
1 22787U 93056A   26169.18767187  .00000114  00000+0  00000+0 0  9992
2 22787  11.8950   3.5495 0005679   8.5548 350.5951  1.00277211118554
USA 99 (MILSTAR-1 1)    
1 22988U 94009A   26168.82583741 -.00000205  00000+0  00000+0 0  9998
2 22988  17.6282  27.7005 0000980 224.0272 313.0792  0.98723627 32952
UFO 4 (USA 108)         
1 23467U 95003A   26168.78834086 -.00000032  00000+0  00000+0 0  9990
2 23467   9.7017  13.2285 0003068  68.9091 279.8771  1.00272692114959
TDRS 7                  
1 23613U 95035B   26168.98569970 -.00000246  00000+0  00000+0 0  9994
2 23613  13.3768 348.1849 0010994  79.2050 282.5108  1.00264263113261
USA 115 (MILSTAR-1 2)   
1 23712U 95060A   26169.30545509 -.00000205  00000+0  00000+0 0  9996
2 23712  14.0734   3.7430 0001511 138.5021 140.4160  1.00364384 32898
INMARSAT 3-F1           
1 23839U 96020A   26169.33021133 -.00000122  00000+0  00000+0 0  9996
2 23839  10.6032  46.6244 0003780  53.3816 189.0686  0.99978480110261
INMARSAT 3-F2           
1 24307U 96053A   26169.01016866 -.00000275  00000+0  00000+0 0  9994
2 24307   9.8587  53.9286 0006658  30.7487 333.8214  1.00002935108937
INMARSAT 3-F3           
1 24674U 96070A   26168.83372411  .00000126  00000+0  00000+0 0  9994
2 24674  10.3194  49.6476 0003343  26.3508 172.0689  0.99982712107914
AMC-3                   
1 24936U 97050A   26169.29874175  .00000053  00000+0  00000+0 0  9998
2 24936   8.1680  63.9741 0004159  27.7296 147.1869  0.99062199 52447
USA 134                 
1 25019U 97065A   26169.29687169 -.00000074  00000+0  00000+0 0  9996
2 25019  12.7859  21.7170 0003378 337.6766 261.7172  1.00268932 32965
INMARSAT 3-F5           
1 25153U 98006B   26169.02871193 -.00000301  00000+0  00000+0 0  9997
2 25153   9.6958  53.2526 0004494  29.5667 139.7480  1.00267375103900
ABS-6                   
1 25924U 99053A   26169.28475821 -.00000126  00000+0  00000+0 0  9997
2 25924   0.0190 299.0949 0003606 151.7003  77.2657  1.00271108 97851
UFO 10 (USA 146)        
1 25967U 99063A   26167.87405916 -.00000197  00000+0  00000+0 0  9994
2 25967   9.8493  27.2133 0001836  41.8612 127.7943  1.00271309 97341
ASIASTAR                
1 26107U 00016A   26168.70975463 -.00000343  00000+0  00000+0 0  9996
2 26107   9.1315  58.1496 0004501  28.5971 179.7118  1.00268496 95927
USA 149 (DSP 20)        
1 26356U 00024A   26169.22407253  .00000083  00000+0  00000+0 0  9996
2 26356  13.1716  11.8477 0001984 311.6381 218.2712  1.00275274 32923
TDRS 8                  
1 26388U 00034A   26168.62837509 -.00000204  00000+0  00000+0 0  9992
2 26388  12.6842  31.3184 0004523  19.1016 166.2701  1.00267105 95182
NSS-11                  
1 26554U 00059A   26169.28818740  .00000018  00000+0  00000+0 0  9995
2 26554   2.1303  81.3762 0002823 355.3340 109.5584  1.00271588 41300
USA 153                 
1 26575U 00065A   26168.66473252 -.00000336  00000+0  00000+0 0  9995
2 26575  11.6255  35.4187 0002995  47.2525 197.0334  1.00269424 32937
AMC-6                   
1 26580U 00067A   26168.46882882  .00000083  00000+0  00000+0 0  9992
2 26580   0.1538  83.1105 0003485  15.4364 200.9328  1.00273003 93890
USA 157 (MILSTAR-2 2)   
1 26715U 01009A   26169.28121900  .00000098  00000+0  00000+0 0  9993
2 26715  11.5443  19.7610 0039259 177.6001  20.3563  1.00275313 32955
INTELSAT 902 (IS-902)   
1 26900U 01039A   26169.17198513 -.00000292  00000+0  00000+0 0  9991
2 26900   6.1195  71.7720 0004327  11.9717 194.4869  1.00271695 90705
USA 164 (MILSTAR-2 3)   
1 27168U 02001A   26168.80294760  .00000088  00000+0  00000+0 0  9990
2 27168  11.1806  21.9069 0099044   8.4150 183.8658  1.00277966 32961
INTELSAT 904 (IS-904)   
1 27380U 02007A   26169.03313194 -.00000235  00000+0  00000+0 0  9996
2 27380   6.9229  69.1748 0006517   5.8334 171.6981  1.00270375 51775
DIRECTV 5 (TEMPO 1)     
1 27426U 02023A   26168.87503751 -.00000065  00000+0  00000+0 0  9997
2 27426   4.8803  75.3025 0003354  25.8416   9.8887  1.00271773 88137
INTELSAT 905 (IS-905)   
1 27438U 02027A   26169.30741014  .00000085  00000+0  00000+0 0  9990
2 27438   6.7572  69.7876 0003863  22.1134 148.0943  1.00271879 51379
GALAXY 3C (G-3C)        
1 27445U 02030A   26168.59285479 -.00000159  00000+0  00000+0 0  9993
2 27445   3.7335  77.9723 0001580  30.9364 275.5108  1.00270957 46491
