OBJECT_NAME,OBJECT_ID,EPOCH,MEAN_MOTION,ECCENTRICITY,INCLINATION,RA_OF_ASC_NODE,ARG_OF_PERICENTER,MEAN_ANOMALY,EPHEMERIS_TYPE,CLASSIFICATION_TYPE,NORAD_CAT_ID,ELEMENT_SET_NO,REV_AT_EPOCH,BSTAR,MEAN_MOTION_DOT,MEAN_MOTION_DDOT
TDRS 3,1988-091B,2026-06-18T06:08:32.808192,1.00272835,.00383923,12.6008,340.9981,356.2065,332.6124,0,U,19548,999,12539,0,-.309E-5,0
FLTSATCOM 8 (USA 46),1989-077A,2026-06-17T22:07:12.152352,1.00277113,.00043551,12.4214,351.1599,56.1729,316.3415,0,U,20253,999,26057,0,-.377E-5,0
SKYNET 4C,1990-079A,2026-06-11T04:50:51.491040,1.00274127,.00024,13.3424,349.8525,96.2313,279.5534,0,U,20776,999,13083,0,.132E-5,0
TDRS 5,1991-054B,2026-06-18T05:32:48.213312,1.00274771,.00063516,14.0710,353.7738,275.3826,272.8417,0,U,21639,999,12772,0,.73E-6,0
TDRS 6,1993-003B,2026-06-17T08:30:38.575296,1.00271326,.00080281,14.1828,357.0581,178.0729,172.3329,0,U,22314,999,12240,0,-.306E-5,0
UFO 2 (USA 95),1993-056A,2026-06-18T04:30:14.849568,1.00277211,.00056794,11.8950,3.5495,8.5548,350.5951,0,U,22787,999,11855,0,.114E-5,0
USA 99 (MILSTAR-1 1),1994-009A,2026-06-17T19:49:12.352224,0.98723627,.000098,17.6282,27.7005,224.0272,313.0792,0,U,22988,999,3295,0,-.205E-5,0
UFO 4 (USA 108),1995-003A,2026-06-17T18:55:12.650304,1.00272692,.00030689,9.7017,13.2285,68.9091,279.8771,0,U,23467,999,11495,0,-.32E-6,0
TDRS 7,1995-035B,2026-06-17T23:39:24.454080,1.00264263,.00109946,13.3768,348.1849,79.2050,282.5108,0,U,23613,999,11326,0,-.246E-5,0
USA 115 (MILSTAR-1 2),1995-060A,2026-06-18T07:19:51.319776,1.00364384,.00015113,14.0734,3.7430,138.5021,140.4160,0,U,23712,999,3289,0,-.205E-5,0
INMARSAT 3-F1,1996-020A,2026-06-18T07:55:30.258912,0.99978480,.00037803,10.6032,46.6244,53.3816,189.0686,0,U,23839,999,11026,0,-.122E-5,0
INMARSAT 3-F2,1996-053A,2026-06-18T00:14:38.572224,1.00002935,.00066584,9.8587,53.9286,30.7487,333.8214,0,U,24307,999,10893,0,-.275E-5,0
INMARSAT 3-F3,1996-070A,2026-06-17T20:00:33.763104,0.99982712,.00033433,10.3194,49.6476,26.3508,172.0689,0,U,24674,999,10791,0,.126E-5,0
AMC-3,1997-050A,2026-06-18T07:10:11.287200,0.99062199,.00041597,8.1680,63.9741,27.7296,147.1869,0,U,24936,999,5244,0,.53E-6,0
USA 134,1997-065A,2026-06-18T07:07:29.714016,1.00268932,.00033788,12.7859,21.7170,337.6766,261.7172,0,U,25019,999,3296,0,-.74E-6,0
INMARSAT 3-F5,1998-006B,2026-06-18T00:41:20.710752,1.00267375,.00044948,9.6958,53.2526,29.5667,139.7480,0,U,25153,999,10390,0,-.301E-5,0
ABS-6,1999-053A,2026-06-18T06:50:03.109344,1.00271108,.00036062,0.0190,299.0949,151.7003,77.2657,0,U,25924,999,9785,0,-.126E-5,0
UFO 10 (USA 146),1999-063A,2026-06-16T20:58:38.711424,1.00271309,.00018362,9.8493,27.2133,41.8612,127.7943,0,U,25967,999,9734,0,-.197E-5,0
ASIASTAR,2000-016A,2026-06-17T17:02:02.800032,1.00268496,.00045011,9.1315,58.1496,28.5971,179.7118,0,U,26107,999,9592,0,-.343E-5,0
USA 149 (DSP 20),2000-024A,2026-06-18T05:22:39.866592,1.00275274,.00019849,13.1716,11.8477,311.6381,218.2712,0,U,26356,999,3292,0,.83E-6,0
TDRS 8,2000-034A,2026-06-17T15:04:51.607776,1.00267105,.00045236,12.6842,31.3184,19.1016,166.2701,0,U,26388,999,9518,0,-.204E-5,0
NSS-11,2000-059A,2026-06-18T06:54:59.391360,1.00271588,.00028239,2.1303,81.3762,355.3340,109.5584,0,U,26554,999,4130,0,.18E-6,0
USA 153,2000-065A,2026-06-17T15:57:12.889728,1.00269424,.00029957,11.6255,35.4187,47.2525,197.0334,0,U,26575,999,3293,0,-.336E-5,0
AMC-6,2000-067A,2026-06-17T11:15:06.810048,1.00273003,.0003485,0.1538,83.1105,15.4364,200.9328,0,U,26580,999,9389,0,.83E-6,0
USA 157 (MILSTAR-2 2),2001-009A,2026-06-18T06:44:57.321600,1.00275313,.00392599,11.5443,19.7610,177.6001,20.3563,0,U,26715,999,3295,0,.98E-6,0
INTELSAT 902 (IS-902),2001-039A,2026-06-18T04:07:39.515232,1.00271695,.00043272,6.1195,71.7720,11.9717,194.4869,0,U,26900,999,9070,0,-.292E-5,0
USA 164 (MILSTAR-2 3),2002-001A,2026-06-17T19:16:14.672640,1.00277966,.00990447,11.1806,21.9069,8.4150,183.8658,0,U,27168,999,3296,0,.88E-6,0
INTELSAT 904 (IS-904),2002-007A,2026-06-18T00:47:42.599616,1.00270375,.00065176,6.9229,69.1748,5.8334,171.6981,0,U,27380,999,5177,0,-.235E-5,0
DIRECTV 5 (TEMPO 1),2002-023A,2026-06-17T21:00:03.240864,1.00271773,.0003354,4.8803,75.3025,25.8416,9.8887,0,U,27426,999,8813,0,-.65E-6,0
INTELSAT 905 (IS-905),2002-027A,2026-06-18T07:22:40.236096,1.00271879,.00038639,6.7572,69.7876,22.1134,148.0943,0,U,27438,999,5137,0,.85E-6,0
GALAXY 3C (G-3C),2002-030A,2026-06-17T14:13:42.653856,1.00270957,.00015808,3.7335,77.9723,30.9364,275.5108,0,U,27445,999,4649,0,-.159E-5,0
